{
    "links": {
        "self": "http://www.neowsapp.com/rest/v1/neo/3767246?api_key=iIulBulltgU6a56xZRHN4H3l9WmuAYTsLGpBGhQ2"
    },
    "id": "3767246",
    "neo_reference_id": "3767246",
    "name": "(2017 BT31)",
    "designation": "2017 BT31",
    "nasa_jpl_url": "http://ssd.jpl.nasa.gov/sbdb.cgi?sstr=3767246",
    "absolute_magnitude_h": 23.9,
    "estimated_diameter": {
        "kilometers": {
            "estimated_diameter_min": 0.04411182,
            "estimated_diameter_max": 0.0986370281
        },
        "meters": {
            "estimated_diameter_min": 44.1118199997,
            "estimated_diameter_max": 98.6370281305
        },
        "miles": {
            "estimated_diameter_min": 0.0274098057,
            "estimated_diameter_max": 0.0612901888
        },
        "feet": {
            "estimated_diameter_min": 144.7238235278,
            "estimated_diameter_max": 323.6123073718
        }
    },
    "is_potentially_hazardous_asteroid": false,
    "close_approach_data": [
        {
            "close_approach_date": "2017-02-01",
            "close_approach_date_full": "2017-Feb-01 04:38",
            "epoch_date_close_approach": 1485923880000,
            "relative_velocity": {
                "kilometers_per_second": "5.3844838353",
                "kilometers_per_hour": "19384.1418069717",
                "miles_per_hour": "12044.5518911153"
            },
            "miss_distance": {
                "astronomical": "0.220752621",
                "lunar": "85.872769569",
                "kilometers": "33024121.89851727",
                "miles": "20520237.811667526"
            },
            "orbiting_body": "Earth"
        }
    ],
    "orbital_data": {
        "orbit_id": "4",
        "orbit_determination_date": "2017-04-06 08:20:37",
        "first_observation_date": "2017-01-28",
        "last_observation_date": "2017-02-16",
        "data_arc_in_days": 19,
        "observations_used": 16,
        "orbit_uncertainty": "8",
        "minimum_orbit_intersection": ".216443",
        "jupiter_tisserand_invariant": "3.437",
        "epoch_osculation": "2457782.5",
        "eccentricity": ".4738604018247146",
        "semi_major_axis": "2.278925865913684",
        "inclination": "8.231813814568502",
        "ascending_node_longitude": "119.6151173748381",
        "orbital_period": "1256.590359210104",
        "perihelion_distance": "1.19903313936309",
        "perihelion_argument": "14.17619260919225",
        "aphelion_distance": "3.358818592464277",
        "perihelion_time": "2457784.962446143749",
        "mean_anomaly": "359.2945349252028",
        "mean_motion": ".2864895447919057",
        "equinox": "J2000",
        "orbit_class": {
            "orbit_class_type": "AMO",
            "orbit_class_description": "Near-Earth asteroid orbits similar to that of 1221 Amor",
            "orbit_class_range": "1.017 AU < q (perihelion) < 1.3 AU"
        }
    },
    "is_sentry_object": false
}